QIANFAN-25              
1 61558U 24185G   25240.59829741  .00000454  00000+0  26981-3 0  9994
2 61558  88.9747  90.2172 0005583 273.6596  86.3948 14.05769805 54596
QIANFAN-26              
1 61559U 24185H   25240.57015605  .00000233  00000+0  22091-3 0  9992
2 61559  88.9761  91.2246 0005353 353.8190   6.2909 13.77730221 54059
QIANFAN-27              
1 61560U 24185J   25240.60116881  .00000478  00000+0  19005-3 0  9998
2 61560  88.9754  89.4027 0005938 283.2346  76.8186 14.27142994 55025
QIANFAN-28              
1 61561U 24185K   25240.56049220  .00000795  00000+0  31660-3 0  9999
2 61561  88.9769  89.4029 0004970 285.5311  74.5334 14.27718021 55026
QIANFAN-29              
1 61562U 24185L   25240.60510201  .00000157  00000+0  22390-3 0  9999
2 61562  88.9754  92.2944 0010499   9.0532 351.0806 13.50963658 53462
QIANFAN-30              
1 61563U 24185M   25240.57375394  .00000141  00000+0  20349-3 0  9993
2 61563  88.9758  91.7803 0007459 357.6942   2.4173 13.49936745 53744
QIANFAN-31              
1 61564U 24185N   25240.57564516  .00000128  00000+0  16053-3 0  9992
2 61564  88.9743  91.7503 0007077 356.5675   3.5431 13.57910091 53758
QIANFAN-32              
1 61565U 24185P   25240.60110511  .00000151  00000+0  21668-3 0  9993
2 61565  88.9802  91.8797 0010100  19.0833 341.0695 13.50689659 53713
